[{"OBJECT_NAME":"STARLINK-1500","OBJECT_ID":"2020-038Q","EPOCH":"2026-03-09T14:42:05.855328","MEAN_MOTION":15.34798508,"ECCENTRICITY":0.0001932,"INCLINATION":53.0377,"RA_OF_ASC_NODE":193.1151,"ARG_OF_PERICENTER":252.7166,"MEAN_ANOMALY":107.3624,"EPHEMERIS_TYPE":0,"CLASSIFICATION_TYPE":"U","NORAD_CAT_ID":45744,"ELEMENT_SET_NO":999,"REV_AT_EPOCH":31680,"BSTAR":0.0008861,"MEAN_MOTION_DOT":0.00030067,"MEAN_MOTION_DDOT":0},{"OBJECT_NAME":"STARLINK-36708","OBJECT_ID":"2026-025W","EPOCH":"2026-03-09T22:00:01.999584","MEAN_MOTION":15.50345873,"ECCENTRICITY":0.0001698,"INCLINATION":97.2843,"RA_OF_ASC_NODE":180.5299,"ARG_OF_PERICENTER":61.6948,"MEAN_ANOMALY":67.7006,"EPHEMERIS_TYPE":0,"CLASSIFICATION_TYPE":"U","NORAD_CAT_ID":67713,"ELEMENT_SET_NO":999,"REV_AT_EPOCH":595,"BSTAR":-0.032195086,"MEAN_MOTION_DOT":-0.01637708,"MEAN_MOTION_DDOT":0}]
